QIANFAN-33              
1 61566U 24185Q   25293.66758523  .00000697  00000+0  49479-3 0  9994
2 61566  88.9752  84.7200 0008541 123.4712 236.7283 13.96481325 61756
QIANFAN-34              
1 61567U 24185R   25293.63644928  .00000847  00000+0  54478-3 0  9997
2 61567  88.9735  84.3575 0007420 125.3183 234.8692 14.02234504 61911
QIANFAN-35              
1 61568U 24185S   25293.64856015  .00001550  00000+0  62106-3 0  9990
2 61568  88.9759  83.1061 0008746  98.8225 261.3960 14.27831577 62608
QIANFAN-36              
1 61569U 24185T   25293.66976416  .00000214  00000+0  29072-3 0  9992
2 61569  88.9740  86.5689 0005911 179.9735 180.1420 13.55565982 60735
QIANFAN-37              
1 62238U 24232B   25293.59203949  .00000180  00000+0  26029-3 0  9996
2 62238  89.0026  46.6826 0001290 122.1817 237.9460 13.50972650 91991
QIANFAN-38              
1 62239U 24232C   25293.61667404  .00000176  00000+0  25438-3 0  9998
2 62239  89.0032  46.5923 0013856 355.6265   4.4763 13.50981094 92050
QIANFAN-39              
1 62240U 24232D   25293.63080050  .00001036  00000+0  43403-3 0  9996
2 62240  89.0029  43.3702 0014269 248.8327 111.1342 14.25300360 93828
QIANFAN-40              
1 62241U 24232E   25293.57550074  .00000181  00000+0  26251-3 0  9990
2 62241  89.0060  46.1661 0013134   4.5383 355.5885 13.50980639 92418
